{"type": "FeatureCollection", "features": [ {"type": "Feature", "properties": {"norad_id": 37971, "name": "COSMOS 2251 DEB", "group": "cosmos-2251-debris", "lat": -8.767652172056037, "lon": 11.279261766126012, "alt_km": 776.8251446403065, "timestamp": "2025-12-27T14:26:30.919329+00:00", "meta": {"OBJECT_NAME": "COSMOS 2251 DEB", "OBJECT_ID": "1993-036BPW", "EPOCH": "2025-12-21T19:16:34.897152", "MEAN_MOTION": 14.48757325, "ECCENTRICITY": 0.00659406, "INCLINATION": 73.9924, "RA_OF_ASC_NODE": 24.7096, "ARG_OF_PERICENTER": 161.9609, "MEAN_ANOMALY": 198.3914, "EPHEMERIS_TYPE": 0, "CLASSIFICATION_TYPE": "U", "NORAD_CAT_ID": 37971, "ELEMENT_SET_NO": 999, "REV_AT_EPOCH": 60809, "BSTAR": 0.0013046337, "MEAN_MOTION_DOT": 5.035e-05, "MEAN_MOTION_DDOT": 0}, "tle": {"line1": "1 37971U 93036BPW 25355.80318168  .00005035  00000+0  13046-2 0  9991", "line2": "2 37971  73.9924  24.7096 0065940 161.9609 198.3914 14.48757325608091"}}, "geometry": {"type": "Point", "coordinates": [11.279261766126012, -8.767652172056037]}}, {"type": "Feature", "properties": {"norad_id": 37975, "name": "COSMOS 2251 DEB", "group": "cosmos-2251-debris", "lat": -71.72423984028002, "lon": -125.41437743834477, "alt_km": 580.3668155216228, "timestamp": "2025-12-27T14:26:30.919340+00:00", "meta": {"OBJECT_NAME": "COSMOS 2251 DEB", "OBJECT_ID": "1993-036BQA", "EPOCH": "2025-12-24T13:38:18.210912", "MEAN_MOTION": 14.76642504, "ECCENTRICITY": 0.00942439, "INCLINATION": 74.0025, "RA_OF_ASC_NODE": 300.8495, "ARG_OF_PERICENTER": 287.7537, "MEAN_ANOMALY": 71.3369, "EPHEMERIS_TYPE": 0, "CLASSIFICATION_TYPE": "U", "NORAD_CAT_ID": 37975, "ELEMENT_SET_NO": 999, "REV_AT_EPOCH": 69920, "BSTAR": 0.0036103843, "MEAN_MOTION_DOT": 0.00027223, "MEAN_MOTION_DDOT": 0}, "tle": {"line1": "1 37975U 93036BQA 25358.56826633  .00027223  00000+0  36104-2 0  9995", "line2": "2 37975  74.0025 300.8495 0094243 287.7537  71.3369 14.76642504699205"}}, "geometry": {"type": "Point", "coordinates": [-125.41437743834477, -71.72423984028002]}}, {"type": "Feature", "properties": {"norad_id": 37985, "name": "COSMOS 2251 DEB", "group": "cosmos-2251-debris", "lat": -40.74254854629032, "lon": -135.82676889827493, "alt_km": 767.901680593498, "timestamp": "2025-12-27T14:26:30.919350+00:00", "meta": {"OBJECT_NAME": "COSMOS 2251 DEB", "OBJECT_ID": "1993-036BQL", "EPOCH": "2025-12-26T08:32:00.813408", "MEAN_MOTION": 14.35487039, "ECCENTRICITY": 0.0021388, "INCLINATION": 74.0244, "RA_OF_ASC_NODE": 240.7464, "ARG_OF_PERICENTER": 359.933, "MEAN_ANOMALY": 0.1816, "EPHEMERIS_TYPE": 0, "CLASSIFICATION_TYPE": "U", "NORAD_CAT_ID": 37985, "ELEMENT_SET_NO": 999, "REV_AT_EPOCH": 65112, "BSTAR": 4.6601e-05, "MEAN_MOTION_DOT": 1.08e-06, "MEAN_MOTION_DDOT": 0}, "tle": {"line1": "1 37985U 93036BQL 25360.35556497  .00000108  00000+0  46601-4 0  9992", "line2": "2 37985  74.0244 240.7464 0021388 359.9330   0.1816 14.35487039651121"}}, "geometry": {"type": "Point", "coordinates": [-135.82676889827493, -40.74254854629032]}}, {"type": "Feature", "properties": {"norad_id": 37988, "name": "COSMOS 2251 DEB", "group": "cosmos-2251-debris", "lat": -51.435537285537535, "lon": -25.695624823997964, "alt_km": 665.194377681777, "timestamp": "2025-12-27T14:26:30.919360+00:00", "meta": {"OBJECT_NAME": "COSMOS 2251 DEB", "OBJECT_ID": "1993-036BQP", "EPOCH": "2025-12-19T02:22:34.688640", "MEAN_MOTION": 14.6891967, "ECCENTRICITY": 0.00635463, "INCLINATION": 74.062, "RA_OF_ASC_NODE": 11.7337, "ARG_OF_PERICENTER": 47.3595, "MEAN_ANOMALY": 313.2907, "EPHEMERIS_TYPE": 0, "CLASSIFICATION_TYPE": "U", "NORAD_CAT_ID": 37988, "ELEMENT_SET_NO": 999, "REV_AT_EPOCH": 23489, "BSTAR": 0.00064166354, "MEAN_MOTION_DOT": 3.842e-05, "MEAN_MOTION_DDOT": 0}, "tle": {"line1": "1 37988U 93036BQP 25353.09901260  .00003842  00000+0  64166-3 0  9993", "line2": "2 37988  74.0620  11.7337 0063546  47.3595 313.2907 14.68919670234897"}}, "geometry": {"type": "Point", "coordinates": [-25.695624823997964, -51.435537285537535]}}, {"type": "Feature", "properties": {"norad_id": 37993, "name": "COSMOS 2251 DEB", "group": "cosmos-2251-debris", "lat": -31.77049614388134, "lon": 128.3159209212895, "alt_km": 702.0053796853599, "timestamp": "2025-12-27T14:26:30.919370+00:00", "meta": {"OBJECT_NAME": "COSMOS 2251 DEB", "OBJECT_ID": "1993-036BQU", "EPOCH": "2025-12-17T04:37:52.855104", "MEAN_MOTION": 14.59966404, "ECCENTRICITY": 0.00218755, "INCLINATION": 74.021, "RA_OF_ASC_NODE": 158.4097, "ARG_OF_PERICENTER": 246.7183, "MEAN_ANOMALY": 113.168, "EPHEMERIS_TYPE": 0, "CLASSIFICATION_TYPE": "U", "NORAD_CAT_ID": 37993, "ELEMENT_SET_NO": 999, "REV_AT_EPOCH": 65382, "BSTAR": 0.0010496489, "MEAN_MOTION_DOT": 5.024e-05, "MEAN_MOTION_DDOT": 0}, "tle": {"line1": "1 37993U 93036BQU 25351.19297286  .00005024  00000+0  10496-2 0  9994", "line2": "2 37993  74.0210 158.4097 0021875 246.7183 113.1680 14.59966404653827"}}, "geometry": {"type": "Point", "coordinates": [128.3159209212895, -31.77049614388134]}}, {"type": "Feature", "properties": {"norad_id": 37994, "name": "COSMOS 2251 DEB", "group": "cosmos-2251-debris", "lat": 43.93802570687162, "lon": -95.74292889879773, "alt_km": 752.9487574350469, "timestamp": "2025-12-27T14:26:30.919380+00:00", "meta": {"OBJECT_NAME": "COSMOS 2251 DEB", "OBJECT_ID": "1993-036BQV", "EPOCH": "2025-12-27T02:33:16.048800", "MEAN_MOTION": 14.39654872, "ECCENTRICITY": 0.00234462, "INCLINATION": 74.0355, "RA_OF_ASC_NODE": 249.1593, "ARG_OF_PERICENTER": 326.2115, "MEAN_ANOMALY": 33.7545, "EPHEMERIS_TYPE": 0, "CLASSIFICATION_TYPE": "U", "NORAD_CAT_ID": 37994, "ELEMENT_SET_NO": 999, "REV_AT_EPOCH": 77271, "BSTAR": 0.00035249289, "MEAN_MOTION_DOT": 1.079e-05, "MEAN_MOTION_DDOT": 0}, "tle": {"line1": "1 37994U 93036BQV 25361.10643575  .00001079  00000+0  35249-3 0  9993", "line2": "2 37994  74.0355 249.1593 0023446 326.2115  33.7545 14.39654872772710"}}, "geometry": {"type": "Point", "coordinates": [-95.74292889879773, 43.93802570687162]}}, {"type": "Feature", "properties": {"norad_id": 37998, "name": "COSMOS 2251 DEB", "group": "cosmos-2251-debris", "lat": -72.08231049805379, "lon": 89.7026802419182, "alt_km": 733.3839504281277, "timestamp": "2025-12-27T14:26:30.919390+00:00", "meta": {"OBJECT_NAME": "COSMOS 2251 DEB", "OBJECT_ID": "1993-036BQZ", "EPOCH": "2025-12-19T00:55:56.823168", "MEAN_MOTION": 14.45502343, "ECCENTRICITY": 0.00202427, "INCLINATION": 74.0345, "RA_OF_ASC_NODE": 223.3597, "ARG_OF_PERICENTER": 295.5973, "MEAN_ANOMALY": 64.3093, "EPHEMERIS_TYPE": 0, "CLASSIFICATION_TYPE": "U", "NORAD_CAT_ID": 37998, "ELEMENT_SET_NO": 999, "REV_AT_EPOCH": 64378, "BSTAR": 0.00035299512, "MEAN_MOTION_DOT": 1.221e-05, "MEAN_MOTION_DDOT": 0}, "tle": {"line1": "1 37998U 93036BQZ 25353.03885212  .00001221  00000+0  35300-3 0  9993", "line2": "2 37998  74.0345 223.3597 0020242 295.5973  64.3093 14.45502343643786"}}, "geometry": {"type": "Point", "coordinates": [89.7026802419182, -72.08231049805379]}}, {"type": "Feature", "properties": {"norad_id": 38001, "name": "COSMOS 2251 DEB", "group": "cosmos-2251-debris", "lat": -36.39260248575079, "lon": -64.7624625281015, "alt_km": 598.632070874587, "timestamp": "2025-12-27T14:26:30.919401+00:00", "meta": {"OBJECT_NAME": "COSMOS 2251 DEB", "OBJECT_ID": "1993-036BRC", "EPOCH": "2025-12-27T01:16:49.898784", "MEAN_MOTION": 14.79252936, "ECCENTRICITY": 0.00653301, "INCLINATION": 74.0013, "RA_OF_ASC_NODE": 104.1096, "ARG_OF_PERICENTER": 251.0027, "MEAN_ANOMALY": 288.2621, "EPHEMERIS_TYPE": 0, "CLASSIFICATION_TYPE": "U", "NORAD_CAT_ID": 38001, "ELEMENT_SET_NO": 999, "REV_AT_EPOCH": 74919, "BSTAR": 0.0010791386, "MEAN_MOTION_DOT": 8.289e-05, "MEAN_MOTION_DDOT": 0}, "tle": {"line1": "1 38001U 93036BRC 25361.05335531  .00008289  00000+0  10791-2 0  9991", "line2": "2 38001  74.0013 104.1096 0065330 251.0027 288.2621 14.79252936749191"}}, "geometry": {"type": "Point", "coordinates": [-64.7624625281015, -36.39260248575079]}}, {"type": "Feature", "properties": {"norad_id": 38006, "name": "COSMOS 2251 DEB", "group": "cosmos-2251-debris", "lat": 71.37527796024835, "lon": 130.91138988832546, "alt_km": 775.0664952835823, "timestamp": "2025-12-27T14:26:30.919411+00:00", "meta": {"OBJECT_NAME": "COSMOS 2251 DEB", "OBJECT_ID": "1993-036BRH", "EPOCH": "2025-12-10T03:36:37.956384", "MEAN_MOTION": 14.45867865, "ECCENTRICITY": 0.00758537, "INCLINATION": 73.8744, "RA_OF_ASC_NODE": 42.933, "ARG_OF_PERICENTER": 348.3853, "MEAN_ANOMALY": 11.555, "EPHEMERIS_TYPE": 0, "CLASSIFICATION_TYPE": "U", "NORAD_CAT_ID": 38006, "ELEMENT_SET_NO": 999, "REV_AT_EPOCH": 62922, "BSTAR": 0.0047338847, "MEAN_MOTION_DOT": 0.00017443, "MEAN_MOTION_DDOT": 0}, "tle": {"line1": "1 38006U 93036BRH 25344.15043931  .00017443  00000+0  47339-2 0  9998", "line2": "2 38006  73.8744  42.9330 0075853 348.3853  11.5550 14.45867865629227"}}, "geometry": {"type": "Point", "coordinates": [130.91138988832546, 71.37527796024835]}}, {"type": "Feature", "properties": {"norad_id": 38054, "name": "COSMOS 2251 DEB", "group": "cosmos-2251-debris", "lat": 49.85644550957472, "lon": -98.57378136564942, "alt_km": 1275.019850399789, "timestamp": "2025-12-27T14:26:30.919421+00:00", "meta": {"OBJECT_NAME": "COSMOS 2251 DEB", "OBJECT_ID": "1993-036BRL", "EPOCH": "2025-12-27T02:36:26.376768", "MEAN_MOTION": 13.62403749, "ECCENTRICITY": 0.03567256, "INCLINATION": 73.9512, "RA_OF_ASC_NODE": 242.277, "ARG_OF_PERICENTER": 217.5029, "MEAN_ANOMALY": 298.8025, "EPHEMERIS_TYPE": 0, "CLASSIFICATION_TYPE": "U", "NORAD_CAT_ID": 38054, "ELEMENT_SET_NO": 999, "REV_AT_EPOCH": 67375, "BSTAR": 0.0019768771, "MEAN_MOTION_DOT": 2.327e-05, "MEAN_MOTION_DDOT": 0}, "tle": {"line1": "1 38054U 93036BRL 25361.10863862  .00002327  00000+0  19769-2 0  9999", "line2": "2 38054  73.9512 242.2770 0356725 217.5029 298.8025 13.62403749673758"}}, "geometry": {"type": "Point", "coordinates": [-98.57378136564942, 49.85644550957472]}}]}